[{"OBJECT_NAME":"STARLINK-30510","OBJECT_ID":"2023-151T","EPOCH":"2026-03-08T19:08:18.718368","MEAN_MOTION":15.02539259,"ECCENTRICITY":0.00012768,"INCLINATION":43.006,"RA_OF_ASC_NODE":356.8477,"ARG_OF_PERICENTER":250.8138,"MEAN_ANOMALY":109.2566,"EPHEMERIS_TYPE":0,"CLASSIFICATION_TYPE":"U","NORAD_CAT_ID":57981,"ELEMENT_SET_NO":999,"REV_AT_EPOCH":13544,"BSTAR":2.1665047e-5,"MEAN_MOTION_DOT":8.9e-7,"MEAN_MOTION_DDOT":0},{"OBJECT_NAME":"NEONSAT-1A","OBJECT_ID":"2026-019A","EPOCH":"2026-03-09T21:53:31.879392","MEAN_MOTION":15.0780294,"ECCENTRICITY":0.00137261,"INCLINATION":97.411,"RA_OF_ASC_NODE":192.4819,"ARG_OF_PERICENTER":167.4713,"MEAN_ANOMALY":192.686,"EPHEMERIS_TYPE":0,"CLASSIFICATION_TYPE":"U","NORAD_CAT_ID":67614,"ELEMENT_SET_NO":999,"REV_AT_EPOCH":585,"BSTAR":0.00027109929,"MEAN_MOTION_DOT":4.096e-5,"MEAN_MOTION_DDOT":0}]
